[{"OBJECT_NAME":"STARLINK-31616","OBJECT_ID":"2024-050S","EPOCH":"2026-03-09T14:42:11.807424","MEAN_MOTION":15.30178062,"ECCENTRICITY":0.0001085,"INCLINATION":53.1608,"RA_OF_ASC_NODE":181.5703,"ARG_OF_PERICENTER":125.2346,"MEAN_ANOMALY":234.8757,"EPHEMERIS_TYPE":0,"CLASSIFICATION_TYPE":"U","NORAD_CAT_ID":59270,"ELEMENT_SET_NO":999,"REV_AT_EPOCH":11053,"BSTAR":6.8608e-5,"MEAN_MOTION_DOT":1.672e-5,"MEAN_MOTION_DDOT":0},{"OBJECT_NAME":"OBJECT V","OBJECT_ID":"2025-155V","EPOCH":"2026-03-09T20:35:20.067360","MEAN_MOTION":15.27583301,"ECCENTRICITY":0.00080353,"INCLINATION":97.4485,"RA_OF_ASC_NODE":37.249,"ARG_OF_PERICENTER":152.8264,"MEAN_ANOMALY":207.3397,"EPHEMERIS_TYPE":0,"CLASSIFICATION_TYPE":"U","NORAD_CAT_ID":64895,"ELEMENT_SET_NO":999,"REV_AT_EPOCH":6557,"BSTAR":0.00051002361,"MEAN_MOTION_DOT":0.00013705,"MEAN_MOTION_DDOT":0}]
